{"fetched_at":"2026-07-06T18:35:16.154Z","source":"https://celestrak.org/NORAD/elements/gp.php?GROUP=planet&FORMAT=JSON","constellation":"skysat","records":[{"OBJECT_NAME":"SKYSAT-A","OBJECT_ID":"2013-066C","EPOCH":"2026-07-06T02:32:16.578816","CLASSIFICATION_TYPE":"U","MEAN_MOTION":15.13081891,"ECCENTRICITY":0.00198357,"INCLINATION":97.3798,"RA_OF_ASC_NODE":235.9003,"ARG_OF_PERICENTER":246.7138,"MEAN_ANOMALY":113.2005,"EPHEMERIS_TYPE":0,"NORAD_CAT_ID":39418,"ELEMENT_SET_NO":999,"REV_AT_EPOCH":69134,"BSTAR":0.00018355603,"MEAN_MOTION_DOT":0.00003198,"MEAN_MOTION_DDOT":0},{"OBJECT_NAME":"SKYSAT-B","OBJECT_ID":"2014-037D","EPOCH":"2026-07-05T21:15:38.628864","CLASSIFICATION_TYPE":"U","MEAN_MOTION":14.88076911,"ECCENTRICITY":0.00047938,"INCLINATION":98.3847,"RA_OF_ASC_NODE":146.9181,"ARG_OF_PERICENTER":204.699,"MEAN_ANOMALY":155.3996,"EPHEMERIS_TYPE":0,"NORAD_CAT_ID":40072,"ELEMENT_SET_NO":999,"REV_AT_EPOCH":64874,"BSTAR":0.00016685044,"MEAN_MOTION_DOT":0.00001473,"MEAN_MOTION_DDOT":0},{"OBJECT_NAME":"SKYSAT-C1","OBJECT_ID":"2016-040C","EPOCH":"2026-07-06T00:54:59.650560","CLASSIFICATION_TYPE":"U","MEAN_MOTION":15.3663982,"ECCENTRICITY":0.0001314,"INCLINATION":96.9555,"RA_OF_ASC_NODE":217.7387,"ARG_OF_PERICENTER":16.191,"MEAN_ANOMALY":343.9377,"EPHEMERIS_TYPE":0,"NORAD_CAT_ID":41601,"ELEMENT_SET_NO":999,"REV_AT_EPOCH":56076,"BSTAR":0.00028717528,"MEAN_MOTION_DOT":0.00010202,"MEAN_MOTION_DDOT":0},{"OBJECT_NAME":"SKYSAT-C4","OBJECT_ID":"2016-058B","EPOCH":"2026-07-06T01:37:34.677408","CLASSIFICATION_TYPE":"U","MEAN_MOTION":15.49219019,"ECCENTRICITY":0.00030117,"INCLINATION":96.9166,"RA_OF_ASC_NODE":208.0555,"ARG_OF_PERICENTER":132.9583,"MEAN_ANOMALY":227.1922,"EPHEMERIS_TYPE":0,"NORAD_CAT_ID":41771,"ELEMENT_SET_NO":999,"REV_AT_EPOCH":54839,"BSTAR":0.00032747926,"MEAN_MOTION_DOT":0.00017787,"MEAN_MOTION_DDOT":0},{"OBJECT_NAME":"SKYSAT-C5","OBJECT_ID":"2016-058C","EPOCH":"2026-07-06T01:53:37.885344","CLASSIFICATION_TYPE":"U","MEAN_MOTION":15.3475729,"ECCENTRICITY":0.00023514,"INCLINATION":97.0456,"RA_OF_ASC_NODE":226.878,"ARG_OF_PERICENTER":178.9118,"MEAN_ANOMALY":181.2132,"EPHEMERIS_TYPE":0,"NORAD_CAT_ID":41772,"ELEMENT_SET_NO":999,"REV_AT_EPOCH":54664,"BSTAR":0.00025924167,"MEAN_MOTION_DOT":0.00008661,"MEAN_MOTION_DDOT":0},{"OBJECT_NAME":"SKYSAT-C2","OBJECT_ID":"2016-058D","EPOCH":"2026-07-06T00:14:39.347232","CLASSIFICATION_TYPE":"U","MEAN_MOTION":15.42527357,"ECCENTRICITY":0.00026464,"INCLINATION":97.0164,"RA_OF_ASC_NODE":208.4005,"ARG_OF_PERICENTER":26.2202,"MEAN_ANOMALY":333.918,"EPHEMERIS_TYPE":0,"NORAD_CAT_ID":41773,"ELEMENT_SET_NO":999,"REV_AT_EPOCH":54795,"BSTAR":0.00031260088,"MEAN_MOTION_DOT":0.00013487,"MEAN_MOTION_DDOT":0},{"OBJECT_NAME":"SKYSAT-C3","OBJECT_ID":"2016-058E","EPOCH":"2026-07-06T02:06:29.695680","CLASSIFICATION_TYPE":"U","MEAN_MOTION":15.53401724,"ECCENTRICITY":0.00018137,"INCLINATION":96.8997,"RA_OF_ASC_NODE":217.2161,"ARG_OF_PERICENTER":134.0548,"MEAN_ANOMALY":226.0856,"EPHEMERIS_TYPE":0,"NORAD_CAT_ID":41774,"ELEMENT_SET_NO":999,"REV_AT_EPOCH":54904,"BSTAR":0.00038585149,"MEAN_MOTION_DOT":0.00024357,"MEAN_MOTION_DDOT":0},{"OBJECT_NAME":"SKYSAT-C11","OBJECT_ID":"2017-068A","EPOCH":"2026-07-05T22:27:16.940736","CLASSIFICATION_TYPE":"U","MEAN_MOTION":15.58936903,"ECCENTRICITY":0.00005166,"INCLINATION":97.4371,"RA_OF_ASC_NODE":336.5978,"ARG_OF_PERICENTER":160.6188,"MEAN_ANOMALY":199.5088,"EPHEMERIS_TYPE":0,"NORAD_CAT_ID":42987,"ELEMENT_SET_NO":999,"REV_AT_EPOCH":48616,"BSTAR":0.00038258779,"MEAN_MOTION_DOT":0.00029636,"MEAN_MOTION_DDOT":0},{"OBJECT_NAME":"SKYSAT-C10","OBJECT_ID":"2017-068B","EPOCH":"2026-07-06T06:21:18.359712","CLASSIFICATION_TYPE":"U","MEAN_MOTION":15.34990794,"ECCENTRICITY":0.00012889,"INCLINATION":97.4531,"RA_OF_ASC_NODE":324.304,"ARG_OF_PERICENTER":108.7243,"MEAN_ANOMALY":251.414,"EPHEMERIS_TYPE":0,"NORAD_CAT_ID":42988,"ELEMENT_SET_NO":999,"REV_AT_EPOCH":48528,"BSTAR":0.00033156238,"MEAN_MOTION_DOT":0.00011177,"MEAN_MOTION_DDOT":0},{"OBJECT_NAME":"SKYSAT-C9","OBJECT_ID":"2017-068C","EPOCH":"2026-07-05T22:20:15.869472","CLASSIFICATION_TYPE":"U","MEAN_MOTION":15.42050982,"ECCENTRICITY":0.00092459,"INCLINATION":97.445,"RA_OF_ASC_NODE":325.082,"ARG_OF_PERICENTER":74.3099,"MEAN_ANOMALY":285.9167,"EPHEMERIS_TYPE":0,"NORAD_CAT_ID":42989,"ELEMENT_SET_NO":999,"REV_AT_EPOCH":48564,"BSTAR":0.00034186347,"MEAN_MOTION_DOT":0.00014539,"MEAN_MOTION_DDOT":0},{"OBJECT_NAME":"SKYSAT-C8","OBJECT_ID":"2017-068D","EPOCH":"2026-07-05T21:09:15.654816","CLASSIFICATION_TYPE":"U","MEAN_MOTION":15.37361203,"ECCENTRICITY":0.00011899,"INCLINATION":97.4548,"RA_OF_ASC_NODE":323.7887,"ARG_OF_PERICENTER":95.6373,"MEAN_ANOMALY":264.5007,"EPHEMERIS_TYPE":0,"NORAD_CAT_ID":42990,"ELEMENT_SET_NO":999,"REV_AT_EPOCH":48518,"BSTAR":0.00031644411,"MEAN_MOTION_DOT":0.00011508,"MEAN_MOTION_DDOT":0},{"OBJECT_NAME":"SKYSAT-C7","OBJECT_ID":"2017-068E","EPOCH":"2026-07-05T22:34:38.022240","CLASSIFICATION_TYPE":"U","MEAN_MOTION":15.37314822,"ECCENTRICITY":0.00064997,"INCLINATION":97.4558,"RA_OF_ASC_NODE":324.8394,"ARG_OF_PERICENTER":51.1899,"MEAN_ANOMALY":308.9925,"EPHEMERIS_TYPE":0,"NORAD_CAT_ID":42991,"ELEMENT_SET_NO":999,"REV_AT_EPOCH":48525,"BSTAR":0.0003115875,"MEAN_MOTION_DOT":0.0001132,"MEAN_MOTION_DDOT":0},{"OBJECT_NAME":"SKYSAT-C6","OBJECT_ID":"2017-068F","EPOCH":"2026-07-05T20:46:44.251680","CLASSIFICATION_TYPE":"U","MEAN_MOTION":15.34304901,"ECCENTRICITY":0.00051792,"INCLINATION":97.4595,"RA_OF_ASC_NODE":324.6589,"ARG_OF_PERICENTER":100.5381,"MEAN_ANOMALY":259.6445,"EPHEMERIS_TYPE":0,"NORAD_CAT_ID":42992,"ELEMENT_SET_NO":999,"REV_AT_EPOCH":48518,"BSTAR":0.00031780523,"MEAN_MOTION_DOT":0.00010482,"MEAN_MOTION_DDOT":0},{"OBJECT_NAME":"SKYSAT-C12","OBJECT_ID":"2018-099AR","EPOCH":"2026-07-06T00:28:55.678368","CLASSIFICATION_TYPE":"U","MEAN_MOTION":15.49555532,"ECCENTRICITY":0.00059286,"INCLINATION":96.9252,"RA_OF_ASC_NODE":209.5056,"ARG_OF_PERICENTER":91.0916,"MEAN_ANOMALY":269.1016,"EPHEMERIS_TYPE":0,"NORAD_CAT_ID":43797,"ELEMENT_SET_NO":999,"REV_AT_EPOCH":42477,"BSTAR":0.00036921092,"MEAN_MOTION_DOT":0.00020319,"MEAN_MOTION_DDOT":0}]}
